    CK05B010  2006 02 23.3790  3.206225  1.000589  103.1327  195.5559   92.5507  20050130   6.5  4.0  C/2005 B1 (Christensen)
    PK05E010  2005 03 17.4349  4.445845  0.383480  170.6977    4.4093    5.1564  20050130  10.0  4.0  P/2005 E1 (Tubbiolo)
    CK05E020  2006 02 23.5730  1.519932  0.999735   39.9716  347.8517   16.9884  20050130   5.5  4.0  C/2005 E2 (McNaught)
    CK05EH3L  2007 03  6.3149  3.900518  1.002019  261.2948  344.7838  130.7239  20050130  11.5  2.0  C/2005 EL173 (LONEOS)
    CK05G010  2006 02 27.1121  4.961369  1.000000  113.7915  299.5914  108.4138             8.0  4.0  C/2005 G1 (LINEAR)
    PK05G08F  2005 08 17.4196  2.828560  0.517389  285.2813  315.2131    1.1891            11.5  4.0  P/2005 GF8 (LONEOS)
    CK05H010  2004 10 26.7877  4.763544  0.896593   94.9687   71.5124   81.4989             8.0  4.0  C/2005 H1 (LINEAR)
    PK05J00N  2005 06 20.4015  2.275564  0.349600  153.6610   70.8030    8.8561            14.0  4.0  P/2005 JN (Spacewatch)
    PK05J010  2005 04 17.2945  1.530012  0.570715  338.9144  268.8381   31.7616            16.5  4.0  P/2005 J1 (McNaught)
    CK05J020  2005 03 30.743   4.28168   1.00000   198.905    33.360   150.790              9.0  4.0  C/2005 J2 (Catalina)
    PK05J05Q  2005 07 28.0424  0.825533  0.693494  222.6954   95.8633    5.6956            17.5  4.0  P/2005 JQ5 (Catalina)
    CK05K010  2005 11 20.676   3.68952   1.00000   134.870   106.389    77.716              7.0  4.0  C/2005 K1 (Skiff)
    CK05K020  2005 07  5.390   0.54463   1.00000   216.580    45.727   102.036             17.5  4.0  C/2005 K2 (LINEAR)
    PK05K030  2005 08 22.985   1.43611   0.45244    24.063   350.221    15.835             13.5  4.0  P/2005 K3 (McNaught)
    PK05L010  2005 12  3.774   3.10434   0.22026   148.552   138.396     7.689              9.5  4.0  P/2005 L1 (McNaught)
    CK05L020  2005 09 15.540   3.04774   1.00000   313.493   159.178   152.351             11.5  4.0  C/2005 L2 (McNaught)
